TDRS 3                  
1 19548U 88091B   22301.10544667 -.00000292  00000+0  00000+0 0  9996
2 19548  13.6206 350.2829 0036575 327.8542  67.1587  1.00281463112073
COSMOS 1989 (ETALON 1)  
1 19751U 89001C   22301.56229271  .00000075  00000+0  00000+0 0  9993
2 19751  64.3380 117.8063 0023871 213.4776 144.4791  2.13156204263067
COSMOS 2024 (ETALON 2)  
1 20026U 89039C   22301.87947505 -.00000051  00000+0  00000+0 0  9997
2 20026  65.5209 355.8637 0018646 218.6689 314.7603  2.13204206260193
FLTSATCOM 8 (USA 46)    
1 20253U 89077A   22301.84893237 -.00000075  00000+0  00000+0 0  9996
2 20253  12.8215 359.3319 0005591 160.4561 254.9497  1.00273715247301
LUSAT (LO-19)           
1 20442U 90005G   22301.73547062  .00000153  00000+0  72496-4 0  9998
2 20442  98.8126 268.7453 0012487 133.8467 226.3750 14.33103434712198
HST                     
1 20580U 90037B   22301.60897546  .00003031  00000+0  16559-3 0  9992
2 20580  28.4715   6.1739 0002661  42.3289  77.9966 15.11132591586375
SKYNET 4C               
1 20776U 90079A   22301.84758735  .00000131  00000+0  00000+0 0  9995
2 20776  13.7679 359.0517 0002834 216.4118 160.2227  1.00272997117586
TDRS 5                  
1 21639U 91054B   22301.67074753  .00000090  00000+0  00000+0 0  9994
2 21639  14.2288   3.6017 0022481 354.9778 112.4973  1.00263662114408
GEOTAIL                 
1 22049U 92044A   22301.04779574 -.00001260  00000+0  00000+0 0  9995
2 22049  46.8102  35.3523 4874326 206.1481 358.6781  0.19234257 13204
LAGEOS 2                
1 22195U 92070B   22301.55718282 -.00000009  00000+0  00000+0 0  9991
2 22195  52.6810  25.6789 0138297 327.0170  22.3889  6.47293377709466
TDRS 6                  
1 22314U 93003B   22302.02827147 -.00000290  00000+0  00000+0 0  9997
2 22314  14.1406   6.8557 0009454 146.0567 208.8048  1.00275416109075
SCD 1                   
1 22490U 93009B   22301.83099330  .00000447  00000+0  73676-4 0  9998
2 22490  24.9687 114.2332 0042983 144.1804 344.8417 14.44741801568867
UFO 2 (USA 95)          
1 22787U 93056A   22301.84455736  .00000132  00000+0  00000+0 0  9993
2 22787  11.4997  10.4304 0005623 208.5272 150.9910  1.00274980105230
STELLA                  
1 22824U 93061B   22301.74135590 -.00000048  00000+0 -55639-6 0  9996
2 22824  98.9565 325.9840 0007248 124.6357  18.9398 14.27394325515393
EYESAT A (AO-27)        
1 22825U 93061C   22302.06911424  .00000084  00000+0  50271-4 0  9994
2 22825  98.8747 335.8551 0008884  28.9704 331.1969 14.30203737517524
ITAMSAT (IO-26)         
1 22826U 93061D   22302.33964330  .00000113  00000+0  61186-4 0  9999
2 22826  98.8691 336.0025 0009150  14.7846 345.3601 14.30553729517809
USA 99 (MILSTAR-1 1)    
1 22988U 94009A   22301.79232914 -.00000189  00000+0  00000+0 0  9993
2 22988  15.5620  41.7042 0003434 183.4162   7.2594  1.00270511 18336
