[{"OBJECT_NAME":"TDRS 3","OBJECT_ID":"1988-091B","EPOCH":"2022-10-28T02:31:50.592288","MEAN_MOTION":1.00281463,"ECCENTRICITY":0.0036575,"INCLINATION":13.6206,"RA_OF_ASC_NODE":350.2829,"ARG_OF_PERICENTER":327.8542,"MEAN_ANOMALY":67.1587,"EPHEMERIS_TYPE":0,"CLASSIFICATION_TYPE":"U","NORAD_CAT_ID":19548,"ELEMENT_SET_NO":999,"REV_AT_EPOCH":11207,"BSTAR":0,"MEAN_MOTION_DOT":-2.92e-6,"MEAN_MOTION_DDOT":0},{"OBJECT_NAME":"COSMOS 1989 (ETALON 1)","OBJECT_ID":"1989-001C","EPOCH":"2022-10-28T13:29:42.090144","MEAN_MOTION":2.13156204,"ECCENTRICITY":0.0023871,"INCLINATION":64.338,"RA_OF_ASC_NODE":117.8063,"ARG_OF_PERICENTER":213.4776,"MEAN_ANOMALY":144.4791,"EPHEMERIS_TYPE":0,"CLASSIFICATION_TYPE":"U","NORAD_CAT_ID":19751,"ELEMENT_SET_NO":999,"REV_AT_EPOCH":26306,"BSTAR":0,"MEAN_MOTION_DOT":7.5e-7,"MEAN_MOTION_DDOT":0},{"OBJECT_NAME":"COSMOS 2024 (ETALON 2)","OBJECT_ID":"1989-039C","EPOCH":"2022-10-28T21:06:26.644320","MEAN_MOTION":2.13204206,"ECCENTRICITY":0.0018646,"INCLINATION":65.5209,"RA_OF_ASC_NODE":355.8637,"ARG_OF_PERICENTER":218.6689,"MEAN_ANOMALY":314.7603,"EPHEMERIS_TYPE":0,"CLASSIFICATION_TYPE":"U","NORAD_CAT_ID":20026,"ELEMENT_SET_NO":999,"REV_AT_EPOCH":26019,"BSTAR":0,"MEAN_MOTION_DOT":-5.1e-7,"MEAN_MOTION_DDOT":0},{"OBJECT_NAME":"FLTSATCOM 8 (USA 46)","OBJECT_ID":"1989-077A","EPOCH":"2022-10-28T20:22:27.756768","MEAN_MOTION":1.00273715,"ECCENTRICITY":0.0005591,"INCLINATION":12.8215,"RA_OF_ASC_NODE":359.3319,"ARG_OF_PERICENTER":160.4561,"MEAN_ANOMALY":254.9497,"EPHEMERIS_TYPE":0,"CLASSIFICATION_TYPE":"U","NORAD_CAT_ID":20253,"ELEMENT_SET_NO":999,"REV_AT_EPOCH":24730,"BSTAR":0,"MEAN_MOTION_DOT":-7.5e-7,"MEAN_MOTION_DDOT":0},{"OBJECT_NAME":"LUSAT (LO-19)","OBJECT_ID":"1990-005G","EPOCH":"2022-10-28T17:39:04.661568","MEAN_MOTION":14.33103434,"ECCENTRICITY":0.0012487,"INCLINATION":98.8126,"RA_OF_ASC_NODE":268.7453,"ARG_OF_PERICENTER":133.8467,"MEAN_ANOMALY":226.375,"EPHEMERIS_TYPE":0,"CLASSIFICATION_TYPE":"U","NORAD_CAT_ID":20442,"ELEMENT_SET_NO":999,"REV_AT_EPOCH":71219,"BSTAR":7.2496e-5,"MEAN_MOTION_DOT":1.53e-6,"MEAN_MOTION_DDOT":0},{"OBJECT_NAME":"HST","OBJECT_ID":"1990-037B","EPOCH":"2022-10-28T14:36:55.479744","MEAN_MOTION":15.11132591,"ECCENTRICITY":0.0002661,"INCLINATION":28.4715,"RA_OF_ASC_NODE":6.1739,"ARG_OF_PERICENTER":42.3289,"MEAN_ANOMALY":77.9966,"EPHEMERIS_TYPE":0,"CLASSIFICATION_TYPE":"U","NORAD_CAT_ID":20580,"ELEMENT_SET_NO":999,"REV_AT_EPOCH":58637,"BSTAR":0.00016559,"MEAN_MOTION_DOT":3.031e-5,"MEAN_MOTION_DDOT":0},{"OBJECT_NAME":"SKYNET 4C","OBJECT_ID":"1990-079A","EPOCH":"2022-10-28T20:20:31.547040","MEAN_MOTION":1.00272997,"ECCENTRICITY":0.0002834,"INCLINATION":13.7679,"RA_OF_ASC_NODE":359.0517,"ARG_OF_PERICENTER":216.4118,"MEAN_ANOMALY":160.2227,"EPHEMERIS_TYPE":0,"CLASSIFICATION_TYPE":"U","NORAD_CAT_ID":20776,"ELEMENT_SET_NO":999,"REV_AT_EPOCH":11758,"BSTAR":0,"MEAN_MOTION_DOT":1.31e-6,"MEAN_MOTION_DDOT":0},{"OBJECT_NAME":"TDRS 5","OBJECT_ID":"1991-054B","EPOCH":"2022-10-28T16:05:52.586592","MEAN_MOTION":1.00263662,"ECCENTRICITY":0.0022481,"INCLINATION":14.2288,"RA_OF_ASC_NODE":3.6017,"ARG_OF_PERICENTER":354.9778,"MEAN_ANOMALY":112.4973,"EPHEMERIS_TYPE":0,"CLASSIFICATION_TYPE":"U","NORAD_CAT_ID":21639,"ELEMENT_SET_NO":999,"REV_AT_EPOCH":11440,"BSTAR":0,"MEAN_MOTION_DOT":9.0e-7,"MEAN_MOTION_DDOT":0},{"OBJECT_NAME":"GEOTAIL","OBJECT_ID":"1992-044A","EPOCH":"2022-10-28T01:08:49.551936","MEAN_MOTION":0.19234257,"ECCENTRICITY":0.4874326,"INCLINATION":46.8102,"RA_OF_ASC_NODE":35.3523,"ARG_OF_PERICENTER":206.1481,"MEAN_ANOMALY":358.6781,"EPHEMERIS_TYPE":0,"CLASSIFICATION_TYPE":"U","NORAD_CAT_ID":22049,"ELEMENT_SET_NO":999,"REV_AT_EPOCH":1320,"BSTAR":0,"MEAN_MOTION_DOT":-1.26e-5,"MEAN_MOTION_DDOT":0},{"OBJECT_NAME":"LAGEOS 2","OBJECT_ID":"1992-070B","EPOCH":"2022-10-28T13:22:20.595648","MEAN_MOTION":6.47293377,"ECCENTRICITY":0.0138297,"INCLINATION":52.681,"RA_OF_ASC_NODE":25.6789,"ARG_OF_PERICENTER":327.017,"MEAN_ANOMALY":22.3889,"EPHEMERIS_TYPE":0,"CLASSIFICATION_TYPE":"U","NORAD_CAT_ID":22195,"ELEMENT_SET_NO":999,"REV_AT_EPOCH":70946,"BSTAR":0,"MEAN_MOTION_DOT":-9.0e-8,"MEAN_MOTION_DDOT":0},{"OBJECT_NAME":"TDRS 6","OBJECT_ID":"1993-003B","EPOCH":"2022-10-29T00:40:42.655008","MEAN_MOTION":1.00275416,"ECCENTRICITY":0.0009454,"INCLINATION":14.1406,"RA_OF_ASC_NODE":6.8557,"ARG_OF_PERICENTER":146.0567,"MEAN_ANOMALY":208.8048,"EPHEMERIS_TYPE":0,"CLASSIFICATION_TYPE":"U","NORAD_CAT_ID":22314,"ELEMENT_SET_NO":999,"REV_AT_EPOCH":10907,"BSTAR":0,"MEAN_MOTION_DOT":-2.9e-6,"MEAN_MOTION_DDOT":0},{"OBJECT_NAME":"SCD 1","OBJECT_ID":"1993-009B","EPOCH":"2022-10-28T19:56:37.821120","MEAN_MOTION":14.44741801,"ECCENTRICITY":0.0042983,"INCLINATION":24.9687,"RA_OF_ASC_NODE":114.2332,"ARG_OF_PERICENTER":144.1804,"MEAN_ANOMALY":344.8417,"EPHEMERIS_TYPE":0,"CLASSIFICATION_TYPE":"U","NORAD_CAT_ID":22490,"ELEMENT_SET_NO":999,"REV_AT_EPOCH":56886,"BSTAR":7.3676e-5,"MEAN_MOTION_DOT":4.47e-6,"MEAN_MOTION_DDOT":0},{"OBJECT_NAME":"UFO 2 (USA 95)","OBJECT_ID":"1993-056A","EPOCH":"2022-10-28T20:16:09.755904","MEAN_MOTION":1.0027498,"ECCENTRICITY":0.0005623,"INCLINATION":11.4997,"RA_OF_ASC_NODE":10.4304,"ARG_OF_PERICENTER":208.5272,"MEAN_ANOMALY":150.991,"EPHEMERIS_TYPE":0,"CLASSIFICATION_TYPE":"U","NORAD_CAT_ID":22787,"ELEMENT_SET_NO":999,"REV_AT_EPOCH":10523,"BSTAR":0,"MEAN_MOTION_DOT":1.32e-6,"MEAN_MOTION_DDOT":0},{"OBJECT_NAME":"STELLA","OBJECT_ID":"1993-061B","EPOCH":"2022-10-28T17:47:33.149760","MEAN_MOTION":14.27394325,"ECCENTRICITY":0.0007248,"INCLINATION":98.9565,"RA_OF_ASC_NODE":325.984,"ARG_OF_PERICENTER":124.6357,"MEAN_ANOMALY":18.9398,"EPHEMERIS_TYPE":0,"CLASSIFICATION_TYPE":"U","NORAD_CAT_ID":22824,"ELEMENT_SET_NO":999,"REV_AT_EPOCH":51539,"BSTAR":-5.5639e-7,"MEAN_MOTION_DOT":-4.8e-7,"MEAN_MOTION_DDOT":0},{"OBJECT_NAME":"EYESAT A (AO-27)","OBJECT_ID":"1993-061C","EPOCH":"2022-10-29T01:39:31.470336","MEAN_MOTION":14.30203737,"ECCENTRICITY":0.0008884,"INCLINATION":98.8747,"RA_OF_ASC_NODE":335.8551,"ARG_OF_PERICENTER":28.9704,"MEAN_ANOMALY":331.1969,"EPHEMERIS_TYPE":0,"CLASSIFICATION_TYPE":"U","NORAD_CAT_ID":22825,"ELEMENT_SET_NO":999,"REV_AT_EPOCH":51752,"BSTAR":5.0271e-5,"MEAN_MOTION_DOT":8.4e-7,"MEAN_MOTION_DDOT":0},{"OBJECT_NAME":"ITAMSAT (IO-26)","OBJECT_ID":"1993-061D","EPOCH":"2022-10-29T08:09:05.181120","MEAN_MOTION":14.30553729,"ECCENTRICITY":0.000915,"INCLINATION":98.8691,"RA_OF_ASC_NODE":336.0025,"ARG_OF_PERICENTER":14.7846,"MEAN_ANOMALY":345.3601,"EPHEMERIS_TYPE":0,"CLASSIFICATION_TYPE":"U","NORAD_CAT_ID":22826,"ELEMENT_SET_NO":999,"REV_AT_EPOCH":51780,"BSTAR":6.1186e-5,"MEAN_MOTION_DOT":1.13e-6,"MEAN_MOTION_DDOT":0},{"OBJECT_NAME":"USA 99 (MILSTAR-1 1)","OBJECT_ID":"1994-009A","EPOCH":"2022-10-28T19:00:57.237696","MEAN_MOTION":1.00270511,"ECCENTRICITY":0.0003434,"INCLINATION":15.562,"RA_OF_ASC_NODE":41.7042,"ARG_OF_PERICENTER":183.4162,"MEAN_ANOMALY":7.2594,"EPHEMERIS_TYPE":0,"CLASSIFICATION_TYPE":"U","NORAD_CAT_ID":22988,"ELEMENT_SET_NO":999,"REV_AT_EPOCH":1833,"BSTAR":0,"MEAN_MOTION_DOT":-1.89e-6,"MEAN_MOTION_DDOT":0}]
